RCM-1                   
1 44322U 19033A   26189.99457343  .00000425  00000+0  46711-4 0  9994
2 44322  97.7600 197.1327 0001512  91.3288 296.7826 14.92588401385330
RCM-2                   
1 44324U 19033C   26189.96714126  .00000170  00000+0  21940-4 0  9992
2 44324  97.7600 197.1503 0001503  90.5513 269.5879 14.92586192385331
